{
    "week": 296,
    "satellites": [
        {
            "Name": "COSMOS 2433 (720)",
            "Line1": "1 32275U 07052A   24342.84455485 -.00000022  00000+0  00000+0 0  9994",
            "Line2": "2 32275  65.8658 334.5933 0005660 256.7774 103.1800  2.13103914133200",
            "SatelliteNumber": "32275",
            "Classification": "U",
            "LaunchYear": "07",
            "LaunchNumber": "052",
            "PieceOfLaunch": "A",
            "EpochYear": "24",
            "EpochDay": 342.84455485,
            "FirstDerivativeMeanMotion": -2.2e-07,
            "SecondDerivativeMeanMotion": "00000+0",
            "BSTAR": "00000+0",
            "SetNumber": "999",
            "Inclination": 65.8658,
            "RAAN": 334.5933,
            "Eccentricity": 0.000566,
            "ArgumentOfPerigee": 256.7774,
            "MeanAnomaly": 103.18,
            "MeanMotion": 2.13103914,
            "RevolutionNumber": "13320"
        },
        {
            "Name": "COSMOS 2432 (719)",
            "Line1": "1 32276U 07052B   24343.66109059 -.00000024  00000+0  00000+0 0  9991",
            "Line2": "2 32276  65.8808 334.6831 0011637 312.6037 259.4394  2.13103057133246",
            "SatelliteNumber": "32276",
            "Classification": "U",
            "LaunchYear": "07",
            "LaunchNumber": "052",
            "PieceOfLaunch": "B",
            "EpochYear": "24",
            "EpochDay": 343.66109059,
            "FirstDerivativeMeanMotion": -2.4e-07,
            "SecondDerivativeMeanMotion": "00000+0",
            "BSTAR": "00000+0",
            "SetNumber": "999",
            "Inclination": 65.8808,
            "RAAN": 334.6831,
            "Eccentricity": 0.0011637,
            "ArgumentOfPerigee": 312.6037,
            "MeanAnomaly": 259.4394,
            "MeanMotion": 2.13103057,
            "RevolutionNumber": "13324"
        },
        {
            "Name": "COSMOS 2434 (721)",
            "Line1": "1 32393U 07065A   24342.32613913  .00000064  00000+0  00000+0 0  9999",
            "Line2": "2 32393  64.3153 210.7145 0004369  71.4543 142.7679  2.13101257131902",
            "SatelliteNumber": "32393",
            "Classification": "U",
            "LaunchYear": "07",
            "LaunchNumber": "065",
            "PieceOfLaunch": "A",
            "EpochYear": "24",
            "EpochDay": 342.32613913,
            "FirstDerivativeMeanMotion": 6.4e-07,
            "SecondDerivativeMeanMotion": "00000+0",
            "BSTAR": "00000+0",
            "SetNumber": "999",
            "Inclination": 64.3153,
            "RAAN": 210.7145,
            "Eccentricity": 0.0004369,
            "ArgumentOfPerigee": 71.4543,
            "MeanAnomaly": 142.7679,
            "MeanMotion": 2.13101257,
            "RevolutionNumber": "13190"
        },
        {
            "Name": "COSMOS 2436 (723)",
            "Line1": "1 32395U 07065C   24343.53030721  .00000068  00000+0  00000+0 0  9999",
            "Line2": "2 32395  64.3239 210.7401 0017446   7.9140 184.7584  2.13099998131887",
            "SatelliteNumber": "32395",
            "Classification": "U",
            "LaunchYear": "07",
            "LaunchNumber": "065",
            "PieceOfLaunch": "C",
            "EpochYear": "24",
            "EpochDay": 343.53030721,
            "FirstDerivativeMeanMotion": 6.8e-07,
            "SecondDerivativeMeanMotion": "00000+0",
            "BSTAR": "00000+0",
            "SetNumber": "999",
            "Inclination": 64.3239,
            "RAAN": 210.7401,
            "Eccentricity": 0.0017446,
            "ArgumentOfPerigee": 7.914,
            "MeanAnomaly": 184.7584,
            "MeanMotion": 2.13099998,
            "RevolutionNumber": "13188"
        },
        {
            "Name": "COSMOS 2456 (730)",
            "Line1": "1 36111U 09070A   24343.74311014  .00000011  00000+0  00000+0 0  9995",
            "Line2": "2 36111  64.6979  89.9698 0002682 297.1431  78.7964  2.13103487116591",
            "SatelliteNumber": "36111",
            "Classification": "U",
            "LaunchYear": "09",
            "LaunchNumber": "070",
            "PieceOfLaunch": "A",
            "EpochYear": "24",
            "EpochDay": 343.74311014,
            "FirstDerivativeMeanMotion": 1.1e-07,
            "SecondDerivativeMeanMotion": "00000+0",
            "BSTAR": "00000+0",
            "SetNumber": "999",
            "Inclination": 64.6979,
            "RAAN": 89.9698,
            "Eccentricity": 0.0002682,
            "ArgumentOfPerigee": 297.1431,
            "MeanAnomaly": 78.7964,
            "MeanMotion": 2.13103487,
            "RevolutionNumber": "11659"
        },
        {
            "Name": "COSMOS 2457 (733)",
            "Line1": "1 36112U 09070B   24343.59046751  .00000012  00000+0  00000+0 0  9993",
            "Line2": "2 36112  64.6828  89.8301 0005361 159.0011 232.3644  2.13100934116634",
            "SatelliteNumber": "36112",
            "Classification": "U",
            "LaunchYear": "09",
            "LaunchNumber": "070",
            "PieceOfLaunch": "B",
            "EpochYear": "24",
            "EpochDay": 343.59046751,
            "FirstDerivativeMeanMotion": 1.2e-07,
            "SecondDerivativeMeanMotion": "00000+0",
            "BSTAR": "00000+0",
            "SetNumber": "999",
            "Inclination": 64.6828,
            "RAAN": 89.8301,
            "Eccentricity": 0.0005361,
            "ArgumentOfPerigee": 159.0011,
            "MeanAnomaly": 232.3644,
            "MeanMotion": 2.13100934,
            "RevolutionNumber": "11663"
        },
        {
            "Name": "COSMOS 2460 (732)",
            "Line1": "1 36402U 10007C   24343.72784743 -.00000025  00000+0  00000+0 0  9997",
            "Line2": "2 36402  65.7184 333.1987 0002958 276.3407 214.5946  2.13106083114893",
            "SatelliteNumber": "36402",
            "Classification": "U",
            "LaunchYear": "10",
            "LaunchNumber": "007",
            "PieceOfLaunch": "C",
            "EpochYear": "24",
            "EpochDay": 343.72784743,
            "FirstDerivativeMeanMotion": -2.5e-07,
            "SecondDerivativeMeanMotion": "00000+0",
            "BSTAR": "00000+0",
            "SetNumber": "999",
            "Inclination": 65.7184,
            "RAAN": 333.1987,
            "Eccentricity": 0.0002958,
            "ArgumentOfPerigee": 276.3407,
            "MeanAnomaly": 214.5946,
            "MeanMotion": 2.13106083,
            "RevolutionNumber": "11489"
        },
        {
            "Name": "COSMOS 2476 (744)",
            "Line1": "1 37867U 11064A   24343.99650573  .00000012  00000+0  00000+0 0  9994",
            "Line2": "2 37867  64.9679  91.6610 0023406 233.1019 248.6555  2.13101414101982",
            "SatelliteNumber": "37867",
            "Classification": "U",
            "LaunchYear": "11",
            "LaunchNumber": "064",
            "PieceOfLaunch": "A",
            "EpochYear": "24",
            "EpochDay": 343.99650573,
            "FirstDerivativeMeanMotion": 1.2e-07,
            "SecondDerivativeMeanMotion": "00000+0",
            "BSTAR": "00000+0",
            "SetNumber": "999",
            "Inclination": 64.9679,
            "RAAN": 91.661,
            "Eccentricity": 0.0023406,
            "ArgumentOfPerigee": 233.1019,
            "MeanAnomaly": 248.6555,
            "MeanMotion": 2.13101414,
            "RevolutionNumber": "10198"
        },
        {
            "Name": "COSMOS 2477 (745)",
            "Line1": "1 37868U 11064B   24343.67237410  .00000016  00000+0  00000+0 0  9995",
            "Line2": "2 37868  64.9747  91.7461 0020537 233.5574 178.5339  2.13102816101928",
            "SatelliteNumber": "37868",
            "Classification": "U",
            "LaunchYear": "11",
            "LaunchNumber": "064",
            "PieceOfLaunch": "B",
            "EpochYear": "24",
            "EpochDay": 343.6723741,
            "FirstDerivativeMeanMotion": 1.6e-07,
            "SecondDerivativeMeanMotion": "00000+0",
            "BSTAR": "00000+0",
            "SetNumber": "999",
            "Inclination": 64.9747,
            "RAAN": 91.7461,
            "Eccentricity": 0.0020537,
            "ArgumentOfPerigee": 233.5574,
            "MeanAnomaly": 178.5339,
            "MeanMotion": 2.13102816,
            "RevolutionNumber": "10192"
        },
        {
            "Name": "COSMOS 2475 (743)",
            "Line1": "1 37869U 11064C   24343.66244619  .00000016  00000+0  00000+0 0  9994",
            "Line2": "2 37869  64.9815  91.7629 0025147 248.9607 113.1347  2.13101475101935",
            "SatelliteNumber": "37869",
            "Classification": "U",
            "LaunchYear": "11",
            "LaunchNumber": "064",
            "PieceOfLaunch": "C",
            "EpochYear": "24",
            "EpochDay": 343.66244619,
            "FirstDerivativeMeanMotion": 1.6e-07,
            "SecondDerivativeMeanMotion": "00000+0",
            "BSTAR": "00000+0",
            "SetNumber": "999",
            "Inclination": 64.9815,
            "RAAN": 91.7629,
            "Eccentricity": 0.0025147,
            "ArgumentOfPerigee": 248.9607,
            "MeanAnomaly": 113.1347,
            "MeanMotion": 2.13101475,
            "RevolutionNumber": "10193"
        }
    ]
}